NORAD_CAT_ID,OBJECT_NAME,OBJECT_TYPE,EPOCH,MEAN_MOTION,ECCENTRICITY,INCLINATION,RA_OF_ASC_NODE,ARG_OF_PERICENTER,MEAN_ANOMALY,BSTAR,MEAN_MOTION_DOT,MEAN_MOTION_DDOT,TLE_LINE0,TLE_LINE1,TLE_LINE2,SEMIMAJOR_AXIS,PERIOD,APOGEE,PERIGEE,DECAYED
55949.0,STARLINK-5899,PAYLOAD,2023-11-07 03:02:46,14.98302946,0.0002568,70.0006,256.7527,247.1426,112.9462,-0.00024069,-2.961e-05,0.0,0 STARLINK-5899,1 55949U 23037AM  23311.12692710 -.00002961  00000-0 -24069-3 0  9999,2 55949  70.0006 256.7527 0002568 247.1426 112.9462 14.98302946 36952,6950.277,96.109,573.926,570.357,0.0
55949.0,STARLINK-5899,PAYLOAD,2023-11-07 14:15:42,14.98319549,0.000264,70.0018,255.5741,264.2736,95.8122,-0.00013534,-1.707e-05,0.0,0 STARLINK-5899,1 55949U 23037AM  23311.59423902 -.00001707  00000-0 -13534-3 0  9997,2 55949  70.0018 255.5741 0002640 264.2736  95.8122 14.98319549 36684,6950.225,96.108,573.925,570.255,0.0
55949.0,STARLINK-5899,PAYLOAD,2023-11-08 03:04:45,14.98331386,0.0002543,70.0013,254.2291,256.8421,103.2454,0.00017124,1.951e-05,0.0,0 STARLINK-5899,1 55949U 23037AM  23312.12830426  .00001951  00000-0  17124-3 0  9998,2 55949  70.0013 254.2291 0002543 256.8421 103.2454 14.98331386 37108,6950.189,96.107,573.821,570.286,0.0
55949.0,STARLINK-5899,PAYLOAD,2023-11-08 06:17:02,14.98330743,0.0002816,70.0002,253.8909,256.9529,103.1316,-0.00012668,-1.604e-05,0.0,0 STARLINK-5899,1 55949U 23037AM  23312.26183126 -.00001604  00000-0 -12668-3 0  9996,2 55949  70.0002 253.8909 0002816 256.9529 103.1316 14.98330743 37124,6950.191,96.107,574.013,570.098,0.0
55949.0,STARLINK-5899,PAYLOAD,2023-11-08 22:18:22,14.98324411,0.0002537,70.0014,252.2103,264.2429,95.8441,0.00031037,3.612e-05,0.0,0 STARLINK-5899,1 55949U 23037AM  23312.92942485  .00003612  00000-0  31037-3 0  9990,2 55949  70.0014 252.2103 0002537 264.2429  95.8441 14.98324411 36880,6950.21,96.107,573.838,570.312,0.0
55949.0,STARLINK-5899,PAYLOAD,2023-11-09 03:06:46,14.98328135,0.0002582,70.0009,251.7064,246.3584,113.7305,0.00034638,4.042e-05,0.0,0 STARLINK-5899,1 55949U 23037AM  23313.12970107  .00004042  00000-0  34638-3 0  9993,2 55949  70.0009 251.7064 0002582 246.3584 113.7305 14.98328135 37255,6950.199,96.107,573.858,570.269,0.0
55949.0,STARLINK-5899,PAYLOAD,2023-11-09 06:19:01,14.98356111,0.0002056,70.0011,251.3699,254.453,105.6402,-7.1261e-05,-9.44e-06,0.0,0 STARLINK-5899,1 55949U 23037AM  23313.26321401 -.00000944  00000-0 -71261-4 0  9998,2 55949  70.0011 251.3699 0002056 254.4530 105.6402 14.98356111 37270,6950.112,96.105,573.406,570.548,0.0
55949.0,STARLINK-5899,PAYLOAD,2023-11-09 22:20:23,14.98311543,0.0003178,70.0026,249.6905,247.7497,112.3326,0.00032198,3.749e-05,0.0,0 STARLINK-5899,1 55949U 23037AM  23313.93083206  .00003749  00000-0  32198-3 0  9999,2 55949  70.0026 249.6905 0003178 247.7497 112.3326 14.98311543 37033,6950.25,96.108,574.324,569.906,0.0
55949.0,STARLINK-5899,PAYLOAD,2023-11-10 03:08:47,14.98330681,0.0002854,70.0023,249.1847,231.5052,128.5852,-4.2368e-05,-5.98e-06,0.0,0 STARLINK-5899,1 55949U 23037AM  23314.13111044 -.00000598  00000-0 -42368-4 0  9996,2 55949  70.0023 249.1847 0002854 231.5052 128.5852 14.98330681 37406,6950.191,96.107,574.039,570.072,0.0
55949.0,STARLINK-5899,PAYLOAD,2023-11-10 06:21:03,14.98333276,0.0002688,70.0002,248.8419,252.8069,107.2796,-4.6924e-05,-6.53e-06,0.0,0 STARLINK-5899,1 55949U 23037AM  23314.26462849 -.00000653  00000-0 -46924-4 0  9996,2 55949  70.0002 248.8419 0002688 252.8069 107.2796 14.98333276 37081,6950.183,96.107,573.916,570.18,0.0
55949.0,STARLINK-5899,PAYLOAD,2023-11-10 22:22:25,14.98323041,0.0002653,70.0008,247.1593,227.7809,132.3125,-0.00022079,-2.726e-05,0.0,0 STARLINK-5899,1 55949U 23037AM  23314.93224053 -.00002726  00000-0 -22079-3 0  9990,2 55949  70.0008 247.1593 0002653 227.7809 132.3125 14.98323041 37182,6950.214,96.107,573.923,570.236,0.0
55949.0,STARLINK-5899,PAYLOAD,2023-11-11 03:10:50,14.98306261,0.0002814,70.0013,246.6545,251.3039,108.7814,2.4027e-06,-6.4e-07,0.0,0 STARLINK-5899,1 55949U 23037AM  23315.13252669 -.00000064  00000-0  24027-5 0  9996,2 55949  70.0013 246.6545 0002814 251.3039 108.7814 14.98306261 37554,6950.266,96.109,574.087,570.175,0.0
55949.0,STARLINK-5899,PAYLOAD,2023-11-11 04:46:58,14.98322082,0.0002671,70.0007,246.4872,250.0771,110.01,-0.00023529,-2.899e-05,0.0,0 STARLINK-5899,1 55949U 23037AM  23315.19928307 -.00002899  00000-0 -23529-3 0  9994,2 55949  70.0007 246.4872 0002671 250.0771 110.0100 14.98322082 37562,6950.217,96.108,573.939,570.226,0.0
55949.0,STARLINK-5899,PAYLOAD,2023-11-11 19:12:09,14.98328987,0.0003046,69.9998,244.9711,261.6163,98.4651,2.7813e-05,2.39e-06,0.0,0 STARLINK-5899,1 55949U 23037AM  23315.80011385  .00000239  00000-0  27813-4 0  9996,2 55949  69.9998 244.9711 0003046 261.6163  98.4651 14.98328987 37653,6950.196,96.107,574.178,569.944,0.0
55949.0,STARLINK-5899,PAYLOAD,2023-11-11 22:24:25,14.9832928,0.0002927,70.0,244.6346,261.8838,98.1989,6.1296e-05,6.38e-06,0.0,0 STARLINK-5899,1 55949U 23037AM  23315.93363298  .00000638  00000-0  61296-4 0  9999,2 55949  70.0000 244.6346 0002927 261.8838  98.1989 14.98329280 37332,6950.195,96.107,574.094,570.026,0.0
55949.0,STARLINK-5899,PAYLOAD,2023-11-12 03:12:46,14.98375525,0.0002634,70.0002,244.1291,254.9957,105.0911,0.0006073,7.169e-05,0.0,0 STARLINK-5899,1 55949U 23037AM  23316.13387221  .00007169  00000-0  60730-3 0  9991,2 55949  70.0002 244.1291 0002634 254.9957 105.0911 14.98375525 37705,6950.052,96.104,573.748,570.086,0.0
55949.0,STARLINK-5899,PAYLOAD,2023-11-12 04:48:57,14.98336133,0.0002858,70.0,243.9612,263.3239,96.7594,0.00012985,1.457e-05,0.0,0 STARLINK-5899,1 55949U 23037AM  23316.20066687  .00001457  00000-0  12985-3 0  9992,2 55949  70.0000 243.9612 0002858 263.3239  96.7594 14.98336133 37718,6950.174,96.107,574.025,570.053,0.0
55949.0,STARLINK-5899,PAYLOAD,2023-11-12 12:49:37,14.98337755,0.0002733,70.0007,243.1189,267.0695,93.0151,0.00010251,1.131e-05,0.0,0 STARLINK-5899,1 55949U 23037AM  23316.53446545  .00001131  00000-0  10251-3 0  9996,2 55949  70.0007 243.1189 0002733 267.0695  93.0151 14.98337755 37423,6950.169,96.107,573.933,570.134,0.0
55949.0,STARLINK-5899,PAYLOAD,2023-11-12 22:26:26,14.98331024,0.0002705,70.0002,242.1087,261.6984,98.3869,0.00027807,3.226e-05,0.0,0 STARLINK-5899,1 55949U 23037AM  23316.93502460  .00003226  00000-0  27807-3 0  9991,2 55949  70.0002 242.1087 0002705 261.6984  98.3869 14.98331024 37487,6950.19,96.107,573.935,570.175,0.0
55949.0,STARLINK-5899,PAYLOAD,2023-11-13 04:50:57,14.98337756,0.0002669,70.0006,241.4361,267.1222,92.9631,0.00035176,4.107e-05,0.0,0 STARLINK-5899,1 55949U 23037AM  23317.20205836  .00004107  00000-0  35176-3 0  9996,2 55949  70.0006 241.4361 0002669 267.1222  92.9631 14.98337756 37860,6950.169,96.107,573.889,570.179,0.0
55949.0,STARLINK-5899,PAYLOAD,2023-11-13 12:51:39,14.98332586,0.0002195,70.0024,240.595,285.3529,74.7388,0.00014281,1.612e-05,0.0,0 STARLINK-5899,1 55949U 23037AM  23317.53586822  .00001612  00000-0  14281-3 0  9991,2 55949  70.0024 240.5950 0002195 285.3529  74.7388 14.98332586 37571,6950.185,96.107,573.575,570.524,0.0
55949.0,STARLINK-5899,PAYLOAD,2023-11-14 03:16:48,14.98374518,0.0002908,70.0004,239.0792,259.1567,100.9265,0.00047133,5.542e-05,0.0,0 STARLINK-5899,1 55949U 23037AM  23318.13666907  .00005542  00000-0  47133-3 0  9999,2 55949  70.0004 239.0792 0002908 259.1567 100.9265 14.98374518 38005,6950.055,96.104,573.941,569.899,0.0
55949.0,STARLINK-5899,PAYLOAD,2023-11-14 04:52:59,14.98336552,0.0002898,70.0003,238.9109,266.8682,93.2145,3.7402e-05,3.53e-06,0.0,0 STARLINK-5899,1 55949U 23037AM  23318.20346218  .00000353  00000-0  37402-4 0  9991,2 55949  70.0003 238.9109 0002898 266.8682  93.2145 14.98336552 38013,6950.173,96.107,574.052,570.023,0.0
55949.0,STARLINK-5899,PAYLOAD,2023-11-15 04:55:02,14.9832879,0.0002335,70.0009,236.3872,274.7282,85.361,-0.0009785,-0.00011748,0.0,0 STARLINK-5899,1 55949U 23037AM  23319.20488591 -.00011748  00000-0 -97850-3 0  9997,2 55949  70.0009 236.3872 0002335 274.7282  85.3610 14.98328790 38168,6950.197,96.107,573.685,570.439,0.0
55949.0,STARLINK-5899,PAYLOAD,2023-11-16 00:08:28,14.98441181,0.0002319,70.0047,234.3669,233.0734,127.0213,0.0013816,0.00016478,0.0,0 STARLINK-5899,1 55949U 23037AM  23320.00588442  .00016478  00000-0  13816-2 0  9995,2 55949  70.0047 234.3669 0002319 233.0734 127.0213 14.98441181 38280,6949.849,96.1,573.326,570.102,0.0
55949.0,STARLINK-5899,PAYLOAD,2023-11-16 04:57:00,14.98406843,0.0002489,70.0041,233.8619,285.8474,74.2411,-0.0014311,-0.0001716,0.0,0 STARLINK-5899,1 55949U 23037AM  23320.20625642 -.00017160  00000-0 -14311-2 0  9993,2 55949  70.0041 233.8619 0002489 285.8474  74.2411 14.98406843 38310,6949.955,96.102,573.55,570.09,0.0
55949.0,STARLINK-5899,PAYLOAD,2023-11-17 00:10:37,14.98322358,0.0002528,70.0024,231.8411,268.3446,91.7424,0.00015153,1.715e-05,0.0,0 STARLINK-5899,1 55949U 23037AM  23321.00737906  .00001715  00000-0  15153-3 0  9992,2 55949  70.0024 231.8411 0002528 268.3446  91.7424 14.98322358 38437,6950.217,96.107,573.839,570.325,0.0
55949.0,STARLINK-5899,PAYLOAD,2023-11-17 11:23:38,14.98264707,0.000205,70.0071,230.6615,286.3039,73.7894,-0.00017806,-2.213e-05,0.0,0 STARLINK-5899,1 55949U 23037AM  23321.47474852 -.00002213  00000-0 -17806-3 0  9994,2 55949  70.0071 230.6615 0002050 286.3039  73.7894 14.98264707 38502,6950.395,96.111,573.685,570.835,0.0
55949.0,STARLINK-5899,PAYLOAD,2023-11-17 17:48:07,14.98339817,0.0002257,70.0078,229.9888,259.2702,100.8203,-0.00049331,-5.975e-05,0.0,0 STARLINK-5899,1 55949U 23037AM  23321.74175708 -.00005975  00000-0 -49331-3 0  9998,2 55949  70.0078 229.9888 0002257 259.2702 100.8203 14.98339817 38542,6950.163,96.106,573.596,570.459,0.0
55949.0,STARLINK-5899,PAYLOAD,2023-11-17 22:36:23,14.98487724,0.0001473,70.007,229.4842,229.455,130.6481,0.00020177,2.325e-05,0.0,0 STARLINK-5899,1 55949U 23037AM  23321.94193558  .00002325  00000-0  20177-3 0  9994,2 55949  70.0070 229.4842 0001473 229.4550 130.6481 14.98487724 38234,6949.705,96.097,572.594,570.546,0.0
